{
"type": "FeatureCollection",
"name": "resettlement_priority_queue",
"crs": { "type": "name", "properties": { "name": "urn:ogc:def:crs:OGC:1.3:CRS84" } },
"features": [
{ "type": "Feature", "properties": { "habitation_id": "HAB-001", "name": "Manali Valley Hamlet", "elevation_m": 1337, "slope_deg": 19.3, "hazard_index": 0.343, "population": 796, "priority_tier": "Medium-Term (Strategic)", "urgency_rank": 3, "recommended_action": "Long-term Hazard Monitoring & Planned Relocation" }, "geometry": { "type": "Point", "coordinates": [ 76.998160475389454, 31.233618039413734 ] } },
{ "type": "Feature", "properties": { "habitation_id": "HAB-002", "name": "Kullu Riverside Basti", "elevation_m": 4139, "slope_deg": 4.7, "hazard_index": 0.108, "population": 2218, "priority_tier": "Medium-Term (Strategic)", "urgency_rank": 3, "recommended_action": "Long-term Hazard Monitoring & Planned Relocation" }, "geometry": { "type": "Point", "coordinates": [ 79.30285722563967, 31.716968971838149 ] } },
{ "type": "Feature", "properties": { "habitation_id": "HAB-003", "name": "Parvati Gorge Settlement", "elevation_m": 4853, "slope_deg": 21.5, "hazard_index": 0.365, "population": 2364, "priority_tier": "Medium-Term (Strategic)", "urgency_rank": 3, "recommended_action": "Long-term Hazard Monitoring & Planned Relocation" }, "geometry": { "type": "Point", "coordinates": [ 78.427975767245627, 32.59902572652895 ] } },
{ "type": "Feature", "properties": { "habitation_id": "HAB-004", "name": "Chamba Ridge Village", "elevation_m": 5179, "slope_deg": 18.7, "hazard_index": 0.328, "population": 1447, "priority_tier": "Medium-Term (Strategic)", "urgency_rank": 3, "recommended_action": "Long-term Hazard Monitoring & Planned Relocation" }, "geometry": { "type": "Point", "coordinates": [ 77.894633936788154, 32.227780074568464 ] } },
{ "type": "Feature", "properties": { "habitation_id": "HAB-005", "name": "Dharamshala Hill Colony", "elevation_m": 463, "slope_deg": 2.0, "hazard_index": 0.007, "population": 750, "priority_tier": "Medium-Term (Strategic)", "urgency_rank": 3, "recommended_action": "Long-term Hazard Monitoring & Planned Relocation" }, "geometry": { "type": "Point", "coordinates": [ 76.124074561769746, 31.664916560792168 ] } },
{ "type": "Feature", "properties": { "habitation_id": "HAB-006", "name": "Shimla Slope Habitation", "elevation_m": 3398, "slope_deg": 13.2, "hazard_index": 0.284, "population": 2211, "priority_tier": "Medium-Term (Strategic)", "urgency_rank": 3, "recommended_action": "Long-term Hazard Monitoring & Planned Relocation" }, "geometry": { "type": "Point", "coordinates": [ 76.123978081344816, 32.947411578889515 ] } },
{ "type": "Feature", "properties": { "habitation_id": "HAB-007", "name": "Kinnaur Terraces", "elevation_m": 243, "slope_deg": 0.1, "hazard_index": 0.004, "population": 391, "priority_tier": "Medium-Term (Strategic)", "urgency_rank": 3, "recommended_action": "Long-term Hazard Monitoring & Planned Relocation" }, "geometry": { "type": "Point", "coordinates": [ 75.732334448672802, 31.057975442608168 ] } },
{ "type": "Feature", "properties": { "habitation_id": "HAB-008", "name": "Spiti Riverbank Ward", "elevation_m": 4187, "slope_deg": 37.8, "hazard_index": 0.701, "population": 2191, "priority_tier": "Immediate (0-30 Days)", "urgency_rank": 1, "recommended_action": "Urgent Evacuation & Priority Resettlement" }, "geometry": { "type": "Point", "coordinates": [ 78.964704583099746, 31.668578594140872 ] } },
{ "type": "Feature", "properties": { "habitation_id": "HAB-009", "name": "Uttarkashi Fluvial Cluster", "elevation_m": 5385, "slope_deg": 8.9, "hazard_index": 0.047, "population": 1513, "priority_tier": "Medium-Term (Strategic)", "urgency_rank": 3, "recommended_action": "Long-term Hazard Monitoring & Planned Relocation" }, "geometry": { "type": "Point", "coordinates": [ 77.904460046972829, 31.965447373174769 ] } },
{ "type": "Feature", "properties": { "habitation_id": "HAB-010", "name": "Joshimath Slump Ward", "elevation_m": 5042, "slope_deg": 18.9, "hazard_index": 0.326, "population": 2289, "priority_tier": "Medium-Term (Strategic)", "urgency_rank": 3, "recommended_action": "Long-term Hazard Monitoring & Planned Relocation" }, "geometry": { "type": "Point", "coordinates": [ 78.332290311184181, 32.324279936868145 ] } },
{ "type": "Feature", "properties": { "habitation_id": "HAB-011", "name": "Rudraprayag Confluence Basti", "elevation_m": 3481, "slope_deg": 10.5, "hazard_index": 0.04, "population": 1540, "priority_tier": "Medium-Term (Strategic)", "urgency_rank": 3, "recommended_action": "Long-term Hazard Monitoring & Planned Relocation" }, "geometry": { "type": "Point", "coordinates": [ 75.582337977183215, 33.640703845572055 ] } },
{ "type": "Feature", "properties": { "habitation_id": "HAB-012", "name": "Tehri Foothill Hamlet", "elevation_m": 5391, "slope_deg": 5.4, "hazard_index": 0.293, "population": 1628, "priority_tier": "Medium-Term (Strategic)", "urgency_rank": 3, "recommended_action": "Long-term Hazard Monitoring & Planned Relocation" }, "geometry": { "type": "Point", "coordinates": [ 79.379639408647975, 31.29869512863344 ] } },
{ "type": "Feature", "properties": { "habitation_id": "HAB-013", "name": "Mandi Basin Settlement", "elevation_m": 5296, "slope_deg": 20.3, "hazard_index": 0.342, "population": 925, "priority_tier": "Medium-Term (Strategic)", "urgency_rank": 3, "recommended_action": "Long-term Hazard Monitoring & Planned Relocation" }, "geometry": { "type": "Point", "coordinates": [ 78.829770563201691, 32.556937753654445 ] } },
{ "type": "Feature", "properties": { "habitation_id": "HAB-014", "name": "Solan Terraced Village", "elevation_m": 3987, "slope_deg": 12.4, "hazard_index": 0.079, "population": 184, "priority_tier": "Medium-Term (Strategic)", "urgency_rank": 3, "recommended_action": "Long-term Hazard Monitoring & Planned Relocation" }, "geometry": { "type": "Point", "coordinates": [ 76.349356442713102, 32.869658275448167 ] } },
{ "type": "Feature", "properties": { "habitation_id": "HAB-015", "name": "Bilaspur Valley Sector", "elevation_m": 265, "slope_deg": 0.2, "hazard_index": 0.002, "population": 2403, "priority_tier": "Medium-Term (Strategic)", "urgency_rank": 3, "recommended_action": "Long-term Hazard Monitoring & Planned Relocation" }, "geometry": { "type": "Point", "coordinates": [ 76.227299868828396, 30.685801650879991 ] } }
]
}
