{
"type": "FeatureCollection",
"name": "resettlement_priority_queue",
"crs": { "type": "name", "properties": { "name": "urn:ogc:def:crs:OGC:1.3:CRS84" } },
"features": [
{ "type": "Feature", "properties": { "habitation_id": "HAB-003", "name": "Parvati Gorge Settlement", "elevation_m": 2745, "slope_deg": 31.5, "hazard_index": 0.673, "population": 2571, "families": 535, "priority_tier": "Short-Term (1-6 Months)", "urgency_rank": 2, "color_code": "#fdae61", "recommended_action": "Pre-Monsoon Relocation & Slope Fortification", "assigned_safe_site": "SAFE-SITE-052", "site_cci": 91.199996948242188, "relocation_distance_km": 70.2 }, "geometry": { "type": "Point", "coordinates": [ 75.708202060616756, 33.204164049364678 ] } },
{ "type": "Feature", "properties": { "habitation_id": "HAB-010", "name": "Joshimath Slump Ward", "elevation_m": 2384, "slope_deg": 30.5, "hazard_index": 0.607, "population": 2974, "families": 619, "priority_tier": "Short-Term (1-6 Months)", "urgency_rank": 2, "color_code": "#fdae61", "recommended_action": "Pre-Monsoon Relocation & Slope Fortification", "assigned_safe_site": "SAFE-SITE-063", "site_cci": 91.199996948242188, "relocation_distance_km": 87.3 }, "geometry": { "type": "Point", "coordinates": [ 76.32176802597823, 32.799400234806583 ] } },
{ "type": "Feature", "properties": { "habitation_id": "HAB-013", "name": "Mandi River Basin Settlement", "elevation_m": 4806, "slope_deg": 25.9, "hazard_index": 0.551, "population": 669, "families": 139, "priority_tier": "Short-Term (1-6 Months)", "urgency_rank": 2, "color_code": "#fdae61", "recommended_action": "Pre-Monsoon Relocation & Slope Fortification", "assigned_safe_site": "SAFE-SITE-030", "site_cci": 91.199996948242188, "relocation_distance_km": 91.9 }, "geometry": { "type": "Point", "coordinates": [ 76.291191130108302, 34.06998351916792 ] } },
{ "type": "Feature", "properties": { "habitation_id": "HAB-001", "name": "Manali Valley Hamlet", "elevation_m": 5047, "slope_deg": 24.3, "hazard_index": 0.474, "population": 612, "families": 127, "priority_tier": "Short-Term (1-6 Months)", "urgency_rank": 2, "color_code": "#fdae61", "recommended_action": "Pre-Monsoon Relocation & Slope Fortification", "assigned_safe_site": "SAFE-SITE-037", "site_cci": 91.199996948242188, "relocation_distance_km": 34.0 }, "geometry": { "type": "Point", "coordinates": [ 77.562314785269294, 33.370172477692947 ] } },
{ "type": "Feature", "properties": { "habitation_id": "HAB-004", "name": "Chamba Ridge Village", "elevation_m": 1596, "slope_deg": 19.7, "hazard_index": 0.424, "population": 1010, "families": 210, "priority_tier": "Medium-Term (Strategic Plan)", "urgency_rank": 3, "color_code": "#2b83ba", "recommended_action": "Long-Term Structural Monitoring & Planned Buffer", "assigned_safe_site": "SAFE-SITE-063", "site_cci": 91.199996948242188, "relocation_distance_km": 69.5 }, "geometry": { "type": "Point", "coordinates": [ 76.251782293655381, 32.567896401948779 ] } },
{ "type": "Feature", "properties": { "habitation_id": "HAB-005", "name": "Dharamshala Slope Colony", "elevation_m": 1734, "slope_deg": 19.4, "hazard_index": 0.41, "population": 2501, "families": 521, "priority_tier": "Medium-Term (Strategic Plan)", "urgency_rank": 3, "color_code": "#2b83ba", "recommended_action": "Long-Term Structural Monitoring & Planned Buffer", "assigned_safe_site": "SAFE-SITE-105", "site_cci": 91.199996948242188, "relocation_distance_km": 119.3 }, "geometry": { "type": "Point", "coordinates": [ 78.204052530449786, 30.784241242220322 ] } },
{ "type": "Feature", "properties": { "habitation_id": "HAB-018", "name": "Kaza High-Altitude Village", "elevation_m": 5554, "slope_deg": 17.2, "hazard_index": 0.408, "population": 1550, "families": 322, "priority_tier": "Medium-Term (Strategic Plan)", "urgency_rank": 3, "color_code": "#2b83ba", "recommended_action": "Long-Term Structural Monitoring & Planned Buffer", "assigned_safe_site": "SAFE-SITE-075", "site_cci": 91.199996948242188, "relocation_distance_km": 81.6 }, "geometry": { "type": "Point", "coordinates": [ 77.893484004706636, 31.905799995991728 ] } },
{ "type": "Feature", "properties": { "habitation_id": "HAB-015", "name": "Bilaspur Valley Sector", "elevation_m": 4745, "slope_deg": 15.9, "hazard_index": 0.401, "population": 749, "families": 156, "priority_tier": "Medium-Term (Strategic Plan)", "urgency_rank": 3, "color_code": "#2b83ba", "recommended_action": "Long-Term Structural Monitoring & Planned Buffer", "assigned_safe_site": "SAFE-SITE-065", "site_cci": 91.199996948242188, "relocation_distance_km": 8.8 }, "geometry": { "type": "Point", "coordinates": [ 79.268836245165488, 32.13139175663639 ] } },
{ "type": "Feature", "properties": { "habitation_id": "HAB-002", "name": "Kullu Riverside Basti", "elevation_m": 2120, "slope_deg": 19.2, "hazard_index": 0.397, "population": 1414, "families": 294, "priority_tier": "Medium-Term (Strategic Plan)", "urgency_rank": 3, "color_code": "#2b83ba", "recommended_action": "Long-Term Structural Monitoring & Planned Buffer", "assigned_safe_site": "SAFE-SITE-075", "site_cci": 91.199996948242188, "relocation_distance_km": 71.5 }, "geometry": { "type": "Point", "coordinates": [ 77.768536830098938, 31.649707548289598 ] } },
{ "type": "Feature", "properties": { "habitation_id": "HAB-017", "name": "Rampur Sutlej Enclave", "elevation_m": 3739, "slope_deg": 15.4, "hazard_index": 0.378, "population": 1889, "families": 393, "priority_tier": "Medium-Term (Strategic Plan)", "urgency_rank": 3, "color_code": "#2b83ba", "recommended_action": "Long-Term Structural Monitoring & Planned Buffer", "assigned_safe_site": "SAFE-SITE-003", "site_cci": 91.199996948242188, "relocation_distance_km": 99.5 }, "geometry": { "type": "Point", "coordinates": [ 75.917533447920704, 34.22093151590132 ] } },
{ "type": "Feature", "properties": { "habitation_id": "HAB-006", "name": "Shimla Ridge Sector", "elevation_m": 4905, "slope_deg": 16.1, "hazard_index": 0.377, "population": 1261, "families": 262, "priority_tier": "Medium-Term (Strategic Plan)", "urgency_rank": 3, "color_code": "#2b83ba", "recommended_action": "Long-Term Structural Monitoring & Planned Buffer", "assigned_safe_site": "SAFE-SITE-077", "site_cci": 91.199996948242188, "relocation_distance_km": 84.6 }, "geometry": { "type": "Point", "coordinates": [ 78.768808078017088, 31.123903102736005 ] } },
{ "type": "Feature", "properties": { "habitation_id": "HAB-011", "name": "Rudraprayag Confluence Basti", "elevation_m": 5026, "slope_deg": 16.8, "hazard_index": 0.34, "population": 3190, "families": 664, "priority_tier": "Medium-Term (Strategic Plan)", "urgency_rank": 3, "color_code": "#2b83ba", "recommended_action": "Long-Term Structural Monitoring & Planned Buffer", "assigned_safe_site": "SAFE-SITE-037", "site_cci": 91.199996948242188, "relocation_distance_km": 25.5 }, "geometry": { "type": "Point", "coordinates": [ 77.706064846274188, 33.392312421423654 ] } },
{ "type": "Feature", "properties": { "habitation_id": "HAB-009", "name": "Uttarkashi Fluvial Cluster", "elevation_m": 6066, "slope_deg": 2.1, "hazard_index": 0.184, "population": 1938, "families": 403, "priority_tier": "Medium-Term (Strategic Plan)", "urgency_rank": 3, "color_code": "#2b83ba", "recommended_action": "Long-Term Structural Monitoring & Planned Buffer", "assigned_safe_site": "SAFE-SITE-057", "site_cci": 91.199996948242188, "relocation_distance_km": 21.0 }, "geometry": { "type": "Point", "coordinates": [ 78.341866674719554, 32.578528507402872 ] } },
{ "type": "Feature", "properties": { "habitation_id": "HAB-014", "name": "Solan Terraced Ward", "elevation_m": 5789, "slope_deg": 13.3, "hazard_index": 0.165, "population": 2840, "families": 591, "priority_tier": "Medium-Term (Strategic Plan)", "urgency_rank": 3, "color_code": "#2b83ba", "recommended_action": "Long-Term Structural Monitoring & Planned Buffer", "assigned_safe_site": "SAFE-SITE-026", "site_cci": 91.199996948242188, "relocation_distance_km": 19.8 }, "geometry": { "type": "Point", "coordinates": [ 78.585286695084562, 33.670096573754087 ] } },
{ "type": "Feature", "properties": { "habitation_id": "HAB-012", "name": "Tehri Foothill Cluster", "elevation_m": 3813, "slope_deg": 12.2, "hazard_index": 0.131, "population": 2796, "families": 582, "priority_tier": "Medium-Term (Strategic Plan)", "urgency_rank": 3, "color_code": "#2b83ba", "recommended_action": "Long-Term Structural Monitoring & Planned Buffer", "assigned_safe_site": "SAFE-SITE-063", "site_cci": 91.199996948242188, "relocation_distance_km": 71.1 }, "geometry": { "type": "Point", "coordinates": [ 76.938101425301127, 32.659454734472455 ] } },
{ "type": "Feature", "properties": { "habitation_id": "HAB-008", "name": "Spiti Riverbank Ward", "elevation_m": 5581, "slope_deg": 6.5, "hazard_index": 0.083, "population": 2139, "families": 445, "priority_tier": "Medium-Term (Strategic Plan)", "urgency_rank": 3, "color_code": "#2b83ba", "recommended_action": "Long-Term Structural Monitoring & Planned Buffer", "assigned_safe_site": "SAFE-SITE-012", "site_cci": 91.199996948242188, "relocation_distance_km": 11.1 }, "geometry": { "type": "Point", "coordinates": [ 78.995729702796908, 34.378408024385564 ] } },
{ "type": "Feature", "properties": { "habitation_id": "HAB-016", "name": "Bharmour Cliff Settlement", "elevation_m": 789, "slope_deg": 5.4, "hazard_index": 0.062, "population": 2230, "families": 464, "priority_tier": "Medium-Term (Strategic Plan)", "urgency_rank": 3, "color_code": "#2b83ba", "recommended_action": "Long-Term Structural Monitoring & Planned Buffer", "assigned_safe_site": "SAFE-SITE-063", "site_cci": 91.199996948242188, "relocation_distance_km": 23.8 }, "geometry": { "type": "Point", "coordinates": [ 76.482943914896083, 31.957452502718994 ] } },
{ "type": "Feature", "properties": { "habitation_id": "HAB-007", "name": "Kinnaur Terraced Hamlet", "elevation_m": 610, "slope_deg": 6.3, "hazard_index": 0.034, "population": 1737, "families": 361, "priority_tier": "Medium-Term (Strategic Plan)", "urgency_rank": 3, "color_code": "#2b83ba", "recommended_action": "Long-Term Structural Monitoring & Planned Buffer", "assigned_safe_site": "SAFE-SITE-094", "site_cci": 91.199996948242188, "relocation_distance_km": 6.7 }, "geometry": { "type": "Point", "coordinates": [ 76.766471634754495, 31.310476219324102 ] } }
]
}
